CUBEBUG-2 (LO-74)       
1 39440U 13066AA  26154.33051700  .00005093  00000+0  47123-3 0  9999
2 39440  97.8904 103.2522 0059453  73.9566 286.8190 14.93641817674922
FUNCUBE-1 (AO-73)       
1 39444U 13066AE  26155.59353272  .00008112  00000+0  50553-3 0  9997
2 39444  97.8278 126.7780 0034647 245.3456 114.4162 15.09331350677763
UWE-3                   
1 39446U 13066AG  26155.64928529  .00004713  00000+0  40572-3 0  9991
2 39446  97.8702 111.6406 0049326   3.6109 356.5458 14.96922367675703
UNISAT-6                
1 40012U 14033C   26154.68605104  .00003559  00000+0  38452-3 0  9992
2 40012  97.7869 307.6374 0046407 112.5348 248.0791 14.88166007644152
DUCHIFAT-1              
1 40021U 14033M   26155.66830056  .00095076  00000+0  10761-2 0  9994
2 40021  98.0472 213.0954 0004853 139.0185 221.1436 15.62101054653794
QB50P1                  
1 40025U 14033R   26154.57246974  .00009724  00000+0  48090-3 0  9999
2 40025  98.0967 164.7661 0007059 272.3380  87.7044 15.18040602650962
LILACSAT-2              
1 40908U 15049K   26155.88698627  .00020496  00000+0  35383-3 0  9998
2 40908  97.4655 192.2640 0005377 304.9654  55.1092 15.51024001593846
FOX-1A (AO-85)          
1 40967U 15058D   26155.67519715  .00003428  00000+0  31024-3 0  9994
2 40967  64.7765 317.8655 0129787  61.5039 299.9071 14.90903375111704
CAS-2T & KS-1Q          
1 41847U 16066G   26155.63484800  .00001982  00000+0  28545-3 0  9991
2 41847  98.3817 231.5141 0342302 167.4688 193.5290 14.44651724502984
RADFXSAT (FOX-1B)       
1 43017U 17073E   26155.17612321  .00011345  00000+0  49455-3 0  9998
2 43017  97.4712  22.6585 0151546  14.2510 346.2924 15.12484658463423
DIWATA-2B               
1 43678U 18084H   26155.83239527  .00003226  00000+0  26166-3 0  9993
2 43678  98.1154 351.5061 0011792 211.4547 148.5971 15.00391997414360
ES'HAIL 2               
1 43700U 18090A   26155.74019446  .00000156  00000+0  00000+0 0  9996
2 43700   0.0177   0.9674 0001949 105.4242  79.0501  1.00272777 27552
FOX-1CLIFF (AO-95)      
1 43770U 18099N   26154.64024448  .00013080  00000+0  50433-3 0  9997
2 43770  97.4392 214.9391 0009397  44.7441 315.4554 15.26406805411154
ITASAT                  
1 43786U 18099AE  26155.63704000  .00008140  00000+0  39246-3 0  9993
2 43786  97.4030 207.4001 0013392  43.0227 317.2052 15.18890618411006
JY1SAT (JO-97)          
1 43803U 18099AX  26155.63215683  .00018538  00000+0  57877-3 0  9999
2 43803  97.4135 218.4269 0004292 324.7580  35.3378 15.33239560411706
UWE-4                   
1 43880U 18111E   26154.36119365  .00034900  00000+0  73362-3 0  9996
2 43880  97.5860  82.1246 0008243  33.3192 326.8573 15.45215882408648
TIANYAN 01              
1 44881U 19093C   26155.86108184  .00000338  00000+0  44129-4 0  9999
2 44881  97.7533 228.3934 0014691 123.5586 236.7035 14.86496517349589
RS-44 & BREEZE-KM R/B   
1 44909U 19096E   26155.02704110  .00000001  00000+0 -44333-4 0  9997
2 44909  82.5219 348.4520 0217590 174.8762 185.4640 12.79748573300666
SALSAT                  
1 46495U 20068K   26154.99736177  .00008555  00000+0  30076-3 0  9992
2 46495  97.8850 157.2614 0009364 359.9507   0.1729 15.29597840313346
XW-3 (CAS-9)            
1 50466U 21131B   26155.83678505  .00000562  00000+0  18718-3 0  9990
2 50466  98.4978 248.2934 0005055 125.0726 235.0938 14.41345974233334
GREENCUBE (IO-117)      
1 53109U 22080E   26152.46502029 -.00000003  00000+0  00000+0 0  9996
2 53109  70.1435 303.7143 0008869 293.3663  66.6064  6.42583280 91055
UMKA 1 (RS40S)          
1 57172U 23091G   26155.72365924  .00007244  00000+0  33222-3 0  9995
2 57172  97.5051 214.4699 0013525 157.1943 202.9895 15.20667787162117
CUBESX-HSE 3 (RS42S)    
1 57178U 23091N   26155.23321483  .00015408  00000+0  51751-3 0  9997
2 57178  97.5093 220.6597 0012044 134.7257 225.4967 15.30872052162449
MONITOR-3 (RS58S)       
1 57180U 23091Q   26155.16389975  .00011994  00000+0  44641-3 0  9998
2 57180  97.5085 218.5166 0012863 141.1958 219.0208 15.27565922162303
MONITOR-4 (RS57S)       
1 57182U 23091S   26155.14373027  .00012486  00000+0  46321-3 0  9993
2 57182  97.5078 218.4669 0012804 141.6583 218.5569 15.27663555162303
MONITOR-2 (RS39S)       
1 57184U 23091U   26155.20231680  .00005604  00000+0  27231-3 0  9993
2 57184  97.5075 213.5700 0012065 151.3600 208.8300 15.18783513161986
SVYATOBOR 1 (RS60S)     
1 57187U 23091X   26155.21130855  .00010113  00000+0  39089-3 0  9994
2 57187  97.5090 218.9584 0010712 133.6184 226.5944 15.26383361162339
VIZARD-METEO (RS38S)    
1 57189U 23091Z   26155.11681252  .00018692  00000+0  54136-3 0  9997
2 57189  97.5093 224.3441 0008752 116.2926 243.9218 15.35589021162685
POLYTECH-UNIVERSE 3 (R*)
1 57191U 23091AB  26155.23122872  .00006402  00000+0  30837-3 0  9999
2 57191  97.5050 213.1033 0015939 168.9055 191.2533 15.18984272161981
UTMN 2 (RS27S)          
1 57203U 23091AP  26155.71521566  .00014578  00000+0  47735-3 0  9997
2 57203  97.5088 222.7663 0009464 120.7007 239.5168 15.31732478162637
